[{"OBJECT_NAME":"KUIPER-00053","OBJECT_ID":"2025-134P","EPOCH":"2026-03-09T15:23:04.985088","MEAN_MOTION":14.79936457,"ECCENTRICITY":7.06e-5,"INCLINATION":51.9009,"RA_OF_ASC_NODE":223.311,"ARG_OF_PERICENTER":157.9369,"MEAN_ANOMALY":202.1623,"EPHEMERIS_TYPE":0,"CLASSIFICATION_TYPE":"U","NORAD_CAT_ID":64513,"ELEMENT_SET_NO":999,"REV_AT_EPOCH":4020,"BSTAR":0.00042309,"MEAN_MOTION_DOT":3.006e-5,"MEAN_MOTION_DDOT":0},{"OBJECT_NAME":"FASTSAT-HSV01 (USA 220)","OBJECT_ID":"2010-062D","EPOCH":"2026-03-09T22:39:04.749408","MEAN_MOTION":14.82022092,"ECCENTRICITY":0.00182404,"INCLINATION":71.9738,"RA_OF_ASC_NODE":20.4219,"ARG_OF_PERICENTER":309.5001,"MEAN_ANOMALY":50.455,"EPHEMERIS_TYPE":0,"CLASSIFICATION_TYPE":"U","NORAD_CAT_ID":37225,"ELEMENT_SET_NO":999,"REV_AT_EPOCH":9942,"BSTAR":0.00013175884,"MEAN_MOTION_DOT":9.91e-6,"MEAN_MOTION_DDOT":0}]
